[{"OBJECT_NAME":"STARLINK-33732","OBJECT_ID":"2025-076G","EPOCH":"2026-03-09T23:36:27.998496","MEAN_MOTION":15.27592039,"ECCENTRICITY":8.605e-5,"INCLINATION":42.9986,"RA_OF_ASC_NODE":320.1898,"ARG_OF_PERICENTER":231.0739,"MEAN_ANOMALY":129.0036,"EPHEMERIS_TYPE":0,"CLASSIFICATION_TYPE":"U","NORAD_CAT_ID":63575,"ELEMENT_SET_NO":999,"REV_AT_EPOCH":5187,"BSTAR":0.00082909865,"MEAN_MOTION_DOT":0.00022631,"MEAN_MOTION_DDOT":0},{"OBJECT_NAME":"NOAA 17 DEB","OBJECT_ID":"2002-032AF","EPOCH":"2026-03-09T00:24:06.552000","MEAN_MOTION":15.25501717,"ECCENTRICITY":0.00030847,"INCLINATION":98.6472,"RA_OF_ASC_NODE":92.5947,"ARG_OF_PERICENTER":165.9893,"MEAN_ANOMALY":194.1428,"EPHEMERIS_TYPE":0,"CLASSIFICATION_TYPE":"U","NORAD_CAT_ID":48614,"ELEMENT_SET_NO":999,"REV_AT_EPOCH":26420,"BSTAR":0.01090047,"MEAN_MOTION_DOT":0.00286783,"MEAN_MOTION_DDOT":0}]
